GOES 18                 
1 51850U 22021A   26065.76841660  .00000093  00000+0  00000+0 0  9993
2 51850   0.0296  62.8119 0000797 344.0189 257.2749  1.00273571  5565
GOES 19                 
1 60133U 24119A   26065.78046332 -.00000252  00000+0  00000+0 0  9990
2 60133   0.0382 315.7313 0001083  73.2098 341.3183  1.00271515  5934
