[{"OBJECT_NAME":"GOES 18","OBJECT_ID":"2022-021A","EPOCH":"2026-03-06T18:26:31.194240","MEAN_MOTION":1.00273571,"ECCENTRICITY":7.97e-5,"INCLINATION":0.0296,"RA_OF_ASC_NODE":62.8119,"ARG_OF_PERICENTER":344.0189,"MEAN_ANOMALY":257.2749,"EPHEMERIS_TYPE":0,"CLASSIFICATION_TYPE":"U","NORAD_CAT_ID":51850,"ELEMENT_SET_NO":999,"REV_AT_EPOCH":556,"BSTAR":0,"MEAN_MOTION_DOT":9.3e-7,"MEAN_MOTION_DDOT":0},{"OBJECT_NAME":"GOES 19","OBJECT_ID":"2024-119A","EPOCH":"2026-03-06T18:43:52.030848","MEAN_MOTION":1.00271515,"ECCENTRICITY":0.0001083,"INCLINATION":0.0382,"RA_OF_ASC_NODE":315.7313,"ARG_OF_PERICENTER":73.2098,"MEAN_ANOMALY":341.3183,"EPHEMERIS_TYPE":0,"CLASSIFICATION_TYPE":"U","NORAD_CAT_ID":60133,"ELEMENT_SET_NO":999,"REV_AT_EPOCH":593,"BSTAR":0,"MEAN_MOTION_DOT":-2.52e-6,"MEAN_MOTION_DDOT":0}]
